CCSDS_OEM_VERS = 2.0  
CREATION_DATE  = 2026-03-24T10:38:00
ORIGINATOR     = ESOC/OPS-GFA                            
 
 



META_START
OBJECT_NAME          = LISA                                    
OBJECT_ID            = -1000                                   
CENTER_NAME          = SUN                     
REF_FRAME            = EME2000 
TIME_SYSTEM          = TCB
START_TIME           = 2036-12-23T00:00:30.346418            
STOP_TIME            = 2047-09-06T04:30:56.657670            
INTERPOLATION        = HERMITE                                 
INTERPOLATION_DEGREE = 7                                       
META_STOP

2037-06-09T23:04:00.261269    -8.00056036694406718e+07   -1.16618699848812521e+08   -4.97538159822711796e+07    2.51876004308252845e+01   -1.43787198689647759e+01   -6.45283713217867927e+00    3.15113877246511832e-06    4.59287593408590507e-06    1.95948671737970796e-06
2037-06-10T19:13:28.513651    -7.81695492552140355e+07   -1.17650008555260435e+08   -5.02169112584421411e+07    2.54136721300352093e+01   -1.40439151616167059e+01   -6.30996434126879180e+00    3.07934559649393044e-06    4.63427356111576987e-06    1.97805832984148498e-06
2037-06-11T15:22:56.766032    -7.63172788113421798e+07   -1.18656912806849122e+08   -5.06695899209245890e+07    2.56345099648106753e+01   -1.37061403446372410e+01   -6.16575835992675181e+00    3.00689445420629399e-06    4.67473144220031379e-06    1.99622912822311000e-06
2037-06-12T11:32:25.018413    -7.44491738652677983e+07   -1.19639199539621338e+08   -5.11117562767743245e+07    2.58500667018513610e+01   -1.33654639366980277e+01   -6.02024841893335871e+00    2.93379953408957371e-06    4.71424069816297564e-06    2.01399514189512765e-06
2037-06-13T07:41:53.270794    -7.25656193639874607e+07   -1.20596660798542380e+08   -5.15433168135134652e+07    2.60602961411779503e+01   -1.30219550963647279e+01   -5.87346403530549033e+00    2.86007512310480637e-06    4.75279256946244112e-06    2.03135245144193366e-06
2037-06-14T03:56:49.562449    -7.06583874171219766e+07   -1.21533251475910023e+08   -5.19660582028971314e+07    2.62660669094710855e+01   -1.26741121399752998e+01   -5.72476306841739735e+00    2.78539853329048457e-06    4.79054654008526569e-06    2.04837302505804424e-06
2037-06-15T00:11:45.854105    -6.87363544999979734e+07   -1.22444386265049994e+08   -5.23779149980319515e+07    2.64663718666425645e+01   -1.23235528368427474e+01   -5.57483665039995113e+00    2.71011632129757318e-06    4.82731753454081593e-06    2.06497360479014165e-06
2037-06-15T20:26:42.145760    -6.67999206423713118e+07   -1.23329869802892610e+08   -5.27787990000518560e+07    2.66611674120080053e+01   -1.19703491407463289e+01   -5.42371553131326145e+00    2.63424351156580878e-06    4.86309738531470007e-06    2.08115052139251132e-06
2037-06-16T16:41:38.437415    -6.48494890122760460e+07   -1.24189511934685647e+08   -5.31686242360853255e+07    2.68504110443429234e+01   -1.16145735959275189e+01   -5.27143072660992651e+00    2.55779524607411348e-06    4.89787806353952090e-06    2.09690016430495722e-06
2037-06-17T12:56:34.729070    -6.28854658366034180e+07   -1.25023127807219550e+08   -5.35473070002990663e+07    2.70340613707178292e+01   -1.12562993262352400e+01   -5.11801351253879311e+00    2.48078679129596991e-06    4.93165169886111704e-06    2.11221899010878056e-06
2037-06-18T09:11:31.020726    -6.09082603204331324e+07   -1.25830537937097877e+08   -5.39147658841621950e+07    2.72120781157713019e+01   -1.08956000229505285e+01   -4.96349542098620233e+00    2.40323354332276269e-06    4.96441059588784200e-06    2.12710352954025532e-06
2037-06-19T05:26:27.312381    -5.89182845652186424e+07   -1.26611568259309158e+08   -5.42709217982033193e+07    2.73844221312897744e+01   -1.05325499315364599e+01   -4.80790823385846089e+00    2.32515103115700107e-06    4.99614724723016202e-06    2.14155039306492455e-06
2037-06-20T01:41:23.604036    -5.69159534859447777e+07   -1.27366050161345676e+08   -5.46156979875278547e+07    2.75510554059605717e+01   -1.01672238375621067e+01   -4.65128397711055541e+00    2.24655491816998507e-06    5.02685434311976979e-06    2.15555627500797445e-06
2037-06-20T21:56:19.895691    -5.49016847273762524e+07   -1.28093820508114755e+08   -5.49490200433632433e+07    2.77119410751645319e+01   -9.79969705204940311e+00   -4.49365491452616173e+00    2.16746100173355032e-06    5.05652477762701125e-06    2.16911795624869907e-06
2037-06-21T18:11:16.187346    -5.28758985795154572e+07   -1.28794721662887946e+08   -5.52708159128995240e+07    2.78670434306748227e+01   -9.43004539649169971e+00   -4.33505354135396814e+00    2.08788521101021160e-06    5.08515165144602816e-06    2.18223230546609663e-06
2037-06-22T14:26:12.479001    -5.08390178923880383e+07   -1.29468601509533808e+08   -5.55810159096927345e+07    2.80163279301282415e+01   -9.05834518779288800e+00   -4.17551257790537456e+00    2.00784360292296866e-06    5.11272827129081261e-06    2.19489627895397360e-06
2037-06-23T10:41:08.770656    -4.87914679902746379e+07   -1.30115313481279671e+08   -5.58795527268987074e+07    2.81597612061355989e+01   -8.68467322337587078e+00   -4.01506496321856687e+00    1.92735235628926295e-06    5.13924814586503357e-06    2.20710691898969819e-06
2037-06-24T06:56:05.062312    -4.67336765855073258e+07   -1.30734716601247966e+08   -5.61663614556047544e+07    2.82973110748975110e+01   -8.30910676670923465e+00   -3.85374384889403654e+00    1.84642776410467754e-06    5.16470497839241419e-06    2.21886135075085980e-06
2037-06-25T03:11:01.353967    -4.46660736919488907e+07   -1.31326675540012583e+08   -5.64413796105267107e+07    2.84289465441922005e+01   -7.93172353350096770e+00   -3.69158259320654913e+00    1.76508622403662703e-06    5.18909265580386321e-06    2.23015677782123874e-06
2037-06-25T23:25:57.645622    -4.25890915382742584e+07   -1.31891060695421070e+08   -5.67045471653389409e+07    2.85546378206016129e+01   -7.55260167880801703e+00   -3.52861475559863402e+00    1.68334422704839890e-06    5.21240523444568374e-06    2.24099047622780992e-06
2037-06-26T19:40:53.937277    -4.05031644811711758e+07   -1.32427748299927548e+08   -5.69558065999047160e+07    2.86743563158423811e+01   -7.17181978531049236e+00   -3.36487409166059237e+00    1.60121834417598069e-06    5.23463692234869269e-06    2.25135978702573210e-06
2037-06-27T15:53:34.438157    -3.84126380724271834e+07   -1.32935698277218312e+08   -5.71946682314783186e+07    2.87878684202060455e+01   -6.79017052125680731e+00   -3.20070159922659059e+00    1.51887944985221305e-06    5.25574417363470335e-06    2.26124430722849936e-06
2037-06-28T12:06:14.939036    -3.63140707339047939e+07   -1.33415824364602298e+08   -5.74215588440717012e+07    2.88953767072516001e+01   -6.40702501506509758e+00   -3.03582689983303267e+00    1.43619156716039174e-06    5.27576395638662360e-06    2.27066127301165998e-06
2037-06-29T08:18:55.439915    -3.42079002043387592e+07   -1.33868020605848432e+08   -5.76364285967028737e+07    2.89968563970491076e+01   -6.02246257184213896e+00   -2.87028409664876039e+00    1.35317155024750975e-06    5.29469133923092948e-06    2.27960839552552869e-06
2037-06-30T04:31:35.940795    -3.20945659957527891e+07   -1.34292186770961463e+08   -5.78392301109627932e+07    2.90922839391193975e+01   -5.63656284951100428e+00   -2.70410745680911546e+00    1.26983633954380415e-06    5.31252155942676603e-06    2.28808345828615238e-06
2037-07-01T00:44:16.441674    -2.99745092918077409e+07   -1.34688228430888057e+08   -5.80299185042803735e+07    2.91816370187227214e+01   -5.24940584575367097e+00   -2.53733140581024541e+00    1.18620296189986114e-06    5.32925004377442369e-06    2.29608432621116365e-06
2037-07-01T20:56:56.942553    -2.78481728513170704e+07   -1.35056057007595539e+08   -5.82084514124801233e+07    2.92648945631307953e+01   -4.86107188357651054e+00   -2.36999052130810872e+00    1.10228853003327878e-06    5.34487242565716425e-06    2.30360895298865106e-06
2037-07-02T17:09:37.443433    -2.57160009156819880e+07   -1.35395589804670364e+08   -5.83747890038715303e+07    2.93420367478334718e+01   -4.47164159577620524e+00   -2.20211952644182984e+00    1.01811024128475726e-06    5.35938455822394363e-06    2.31065538678254823e-06
2037-07-03T13:22:17.944312    -2.35784391190178432e+07   -1.35706750023576051e+08   -5.85288939871062264e+07    2.94130450026297297e+01   -4.08119590858706971e+00   -2.03375328280254930e+00    9.33685375682615643e-07    5.37278252370664387e-06    2.31722177427147578e-06
2037-07-04T09:34:58.445192    -2.14359343997432813e+07   -1.35989466770710379e+08   -5.86707316150388569e+07    2.94779020175527400e+01   -3.68981602479085735e+00   -1.86492678316892935e+00    8.49031293317410514e-07    5.38506263888162631e-06    2.32330636302553905e-06
2037-07-05T05:47:38.946071    -1.92889349124037772e+07   -1.36243675060402036e+08   -5.88002696868275553e+07    2.95365917485786547e+01   -3.29758340656999938e+00   -1.69567514413041920e+00    7.64165431022090079e-07    5.39622145665334109e-06    2.32890750221131837e-06
2037-07-06T02:00:19.446950    -1.71378899385010116e+07   -1.36469315818985939e+08   -5.89174785505101681e+07    2.95890994230689159e+01   -2.90457975838535276e+00   -1.52603359871948463e+00    6.79105298365812289e-07    5.40625576379996159e-06    2.33402364164230181e-06
2037-07-06T22:12:59.947829    -1.49832497950997166e+07   -1.36666335895098150e+08   -5.90223311082919687e+07    2.96354115448957245e+01   -2.51088701015943894e+00   -1.35603748917388645e+00    5.93868472954344636e-07    5.41516257483830027e-06    2.33865332915647001e-06
2037-07-07T18:25:40.448710    -1.28254657399835698e+07   -1.36834688081328988e+08   -5.91148028267810270e+07    2.96755158992004269e+01   -2.11658730104621995e+00   -1.18572225995020020e+00    5.08472595038481014e-07    5.42293912203171337e-06    2.34279520633101583e-06
